GPS BIIA-23 (PRN 18)    
1 22877U 93068A   19049.54291230 -.00000007  00000-0  00000+0 0  9998
2 22877  54.6003  73.4035 0148014  78.6009   5.9160  2.00556536185496
GPS BIIR-2  (PRN 13)    
1 24876U 97035A   19049.32400704  .00000028  00000-0  00000+0 0  9993
2 24876  55.4683 203.1184 0034918  77.5328 282.8154  2.00564398158085
GPS BIIR-3  (PRN 11)    
1 25933U 99055A   19048.93796597 -.00000034  00000-0  00000+0 0  9994
2 25933  52.0531  51.0001 0163120 106.9942 261.7499  2.00561445141899
GPS BIIR-4  (PRN 20)    
1 26360U 00025A   19049.51621399 -.00000009  00000-0  00000+0 0  9992
2 26360  53.2860 129.3882 0042410 132.7434 339.8019  2.00562930137596
GPS BIIR-5  (PRN 28)    
1 26407U 00040A   19049.26771733 -.00000039  00000-0  00000+0 0  9994
2 26407  56.3355 321.2576 0195501 275.4934 352.5811  2.00560719136273
GPS BIIR-6  (PRN 14)    
1 26605U 00071A   19049.22840854  .00000025  00000-0  00000+0 0  9999
2 26605  55.0423 200.6170 0103766 248.7893 261.8946  2.00563402133869
GPS BIIR-8  (PRN 16)    
1 27663U 03005A   19047.96396781 -.00000040  00000-0  00000+0 0  9996
2 27663  56.3979 321.0783 0104687  29.9311 134.2074  2.00551823117613
GPS BIIR-9  (PRN 21)    
1 27704U 03010A   19049.50114454 -.00000009  00000-0  00000+0 0  9990
2 27704  54.2741  72.9125 0249523 275.4289 248.0148  2.00549557116432
GPS BIIR-10 (PRN 22)    
1 28129U 03058A   19048.51970038 -.00000016  00000-0  00000+0 0  9990
2 28129  53.0979 132.2378 0074110 278.5596  80.6357  2.00574349111116
GPS BIIR-11 (PRN 19)    
1 28190U 04009A   19048.74926417 -.00000058  00000-0  00000+0 0  9998
2 28190  56.2471  21.8344 0091685  76.6878  88.4577  2.00569876109293
GPS BIIR-12 (PRN 23)    
1 28361U 04023A   19049.52796390  .00000015  00000-0  00000+0 0  9998
2 28361  54.0524 195.0951 0129936 229.0550  50.7780  2.00567172107392
GPS BIIR-13 (PRN 02)    
1 28474U 04045A   19049.29636426 -.00000007  00000-0  00000+0 0  9996
2 28474  54.6351  72.6287 0190854 258.5571 218.1803  2.00565787104753
GPS BIIRM-1 (PRN 17)    
1 28874U 05038A   19049.27563913 -.00000063  00000-0  00000+0 0  9993
2 28874  56.3762  19.1526 0132106 261.4099 307.5521  2.00561364 98151
GPS BIIRM-2 (PRN 31)    
1 29486U 06042A   19049.54598221  .00000058  00000-0  00000+0 0  9992
2 29486  55.0533 257.7936 0092663 357.6899 323.7348  2.00576063 90877
GPS BIIRM-3 (PRN 12)    
1 29601U 06052A   19048.54460067 -.00000037  00000-0  00000+0 0  9995
2 29601  56.3761 319.9719 0072639  58.3783 302.3679  2.00561036 89772
GPS BIIRM-4 (PRN 15)    
1 32260U 07047A   19049.35557534  .00000010  00000-0  00000+0 0  9991
2 32260  53.1756 190.9001 0110779  42.9314 317.8777  2.00566808 83163
GPS BIIRM-5 (PRN 29)    
1 32384U 07062A   19049.42075472 -.00000063  00000-0  00000+0 0  9998
2 32384  56.4573  19.7764 0004744  79.6215 105.2765  2.00576964 81908
GPS BIIRM-6 (PRN 07)    
1 32711U 08012A   19048.76460146  .00000067  00000-0  00000+0 0  9993
2 32711  54.7915 257.0431 0123596 218.8534 140.3013  2.00570811 80077
GPS BIIRM-8 (PRN 05)    
1 35752U 09043A   19049.36625748 -.00000010  00000-0  00000+0 0  9993
2 35752  54.3877 134.7205 0054023  39.0907  61.2385  2.00568301 69670
GPS BIIF-1  (PRN 25)    
1 36585U 10022A   19049.29521274 -.00000031  00000-0  00000+0 0  9991
2 36585  55.6580 316.3273 0080413  48.1628 106.5356  2.00554407 63921
GPS BIIF-2  (PRN 01)    
1 37753U 11036A   19048.21354012  .00000002  00000-0  00000+0 0  9997
2 37753  55.8312  76.4928 0082462  37.8458 140.1300  2.00565429 55578
GPS BIIF-3  (PRN 24)    
1 38833U 12053A   19048.94845645  .00000064  00000-0  00000+0 0  9992
2 38833  53.8252 253.3527 0080564  32.7231 327.8175  2.00556734 46667
GPS BIIF-4  (PRN 27)    
1 39166U 13023A   19049.31016982 -.00000067  00000-0  00000+0 0  9990
2 39166  56.0633  15.9668 0066112  22.8762 337.4076  2.00568345 42209
GPS BIIF-5  (PRN 30)    
1 39533U 14008A   19048.80795483  .00000063  00000-0  00000+0 0  9990
2 39533  53.9603 258.7402 0037025 190.2511 169.7251  2.00568830 36557
GPS BIIF-6  (PRN 06)    
1 39741U 14026A   19049.09447212  .00000000  00000-0  00000+0 0  9998
2 39741  55.8129  75.9830 0016858 290.3793  69.5096  2.00549387 34841
GPS BIIF-7  (PRN 09)    
1 40105U 14045A   19049.18000748  .00000018  00000-0  00000+0 0  9993
2 40105  54.5788 195.3480 0012235 100.0378 260.0542  2.00556273 33297
GPS BIIF-8  (PRN 03)    
1 40294U 14068A   19049.04884155 -.00000011  00000-0  00000+0 0  9998
2 40294  55.1395 136.1937 0017715  29.9972 330.1344  2.00574469 31513
GPS BIIF-9  (PRN 26)    
1 40534U 15013A   19048.19780769 -.00000030  00000-0  00000+0 0  9998
2 40534  54.5905 314.8386 0036223   2.4015 357.6627  2.00577275 28569
GPS BIIF-10  (PRN 08)   
1 40730U 15033A   19048.84777106 -.00000066  00000-0  00000+0 0  9990
2 40730  55.5899  15.3791 0043595 337.5058  22.2962  2.00560961 26336
GPS BIIF-11  (PRN 10)   
1 41019U 15062A   19049.39825059 -.00000009  00000-0  00000+0 0  9992
2 41019  55.1420 135.9913 0044293 205.2311 154.5845  2.00564480 24165
GPS BIIF-12  (PRN 32)   
1 41328U 16007A   19049.49277110  .00000017  00000-0  00000+0 0  9993
2 41328  54.8247 195.6929 0027216 214.4209 145.3559  2.00553553 22229
